[{"OBJECT_NAME":"RESOURCESAT-2A","OBJECT_ID":"2016-074A","EPOCH":"2026-03-03T20:22:29.857152","MEAN_MOTION":14.21596911,"ECCENTRICITY":0.0002764,"INCLINATION":98.762,"RA_OF_ASC_NODE":137.1823,"ARG_OF_PERICENTER":48.2637,"MEAN_ANOMALY":311.8776,"EPHEMERIS_TYPE":0,"CLASSIFICATION_TYPE":"U","NORAD_CAT_ID":41877,"ELEMENT_SET_NO":999,"REV_AT_EPOCH":47933,"BSTAR":2.4513e-6,"MEAN_MOTION_DOT":-3.9e-7,"MEAN_MOTION_DDOT":0},{"OBJECT_NAME":"CARTOSAT-2D","OBJECT_ID":"2017-008A","EPOCH":"2026-03-03T20:14:06.802656","MEAN_MOTION":15.19309145,"ECCENTRICITY":0.0004494,"INCLINATION":97.4244,"RA_OF_ASC_NODE":124.0439,"ARG_OF_PERICENTER":240.4415,"MEAN_ANOMALY":119.6372,"EPHEMERIS_TYPE":0,"CLASSIFICATION_TYPE":"U","NORAD_CAT_ID":41948,"ELEMENT_SET_NO":999,"REV_AT_EPOCH":50158,"BSTAR":0.00020145,"MEAN_MOTION_DOT":4.186e-5,"MEAN_MOTION_DDOT":0},{"OBJECT_NAME":"SENTINEL-2B","OBJECT_ID":"2017-013A","EPOCH":"2026-03-03T19:44:56.645376","MEAN_MOTION":14.30817351,"ECCENTRICITY":0.000109,"INCLINATION":98.5673,"RA_OF_ASC_NODE":139.102,"ARG_OF_PERICENTER":93.9311,"MEAN_ANOMALY":266.1996,"EPHEMERIS_TYPE":0,"CLASSIFICATION_TYPE":"U","NORAD_CAT_ID":42063,"ELEMENT_SET_NO":999,"REV_AT_EPOCH":46957,"BSTAR":9.6715e-5,"MEAN_MOTION_DOT":2.1e-6,"MEAN_MOTION_DDOT":0},{"OBJECT_NAME":"CARTOSAT-2E","OBJECT_ID":"2017-036C","EPOCH":"2026-03-03T20:38:34.272096","MEAN_MOTION":15.19249338,"ECCENTRICITY":0.0002976,"INCLINATION":97.441,"RA_OF_ASC_NODE":124.327,"ARG_OF_PERICENTER":322.2923,"MEAN_ANOMALY":37.8103,"EPHEMERIS_TYPE":0,"CLASSIFICATION_TYPE":"U","NORAD_CAT_ID":42767,"ELEMENT_SET_NO":999,"REV_AT_EPOCH":48215,"BSTAR":0.00019181,"MEAN_MOTION_DOT":3.974e-5,"MEAN_MOTION_DDOT":0},{"OBJECT_NAME":"FORMOSAT-5","OBJECT_ID":"2017-049A","EPOCH":"2026-03-03T17:47:41.203104","MEAN_MOTION":14.5081756,"ECCENTRICITY":0.0011981,"INCLINATION":98.2322,"RA_OF_ASC_NODE":140.3777,"ARG_OF_PERICENTER":53.4293,"MEAN_ANOMALY":306.8003,"EPHEMERIS_TYPE":0,"CLASSIFICATION_TYPE":"U","NORAD_CAT_ID":42920,"ELEMENT_SET_NO":999,"REV_AT_EPOCH":45138,"BSTAR":8.288e-5,"MEAN_MOTION_DOT":2.83e-6,"MEAN_MOTION_DDOT":0},{"OBJECT_NAME":"SENTINEL-5P","OBJECT_ID":"2017-064A","EPOCH":"2026-03-03T19:47:48.334272","MEAN_MOTION":14.1954741,"ECCENTRICITY":0.0001109,"INCLINATION":98.7875,"RA_OF_ASC_NODE":5.7297,"ARG_OF_PERICENTER":80.6139,"MEAN_ANOMALY":279.5162,"EPHEMERIS_TYPE":0,"CLASSIFICATION_TYPE":"U","NORAD_CAT_ID":42969,"ELEMENT_SET_NO":999,"REV_AT_EPOCH":43461,"BSTAR":6.5645e-5,"MEAN_MOTION_DOT":9.4e-7,"MEAN_MOTION_DDOT":0},{"OBJECT_NAME":"SKYSAT-C11","OBJECT_ID":"2017-068A","EPOCH":"2026-03-03T09:34:15.951072","MEAN_MOTION":15.51924937,"ECCENTRICITY":7.519e-5,"INCLINATION":97.4187,"RA_OF_ASC_NODE":207.1776,"ARG_OF_PERICENTER":86.7569,"MEAN_ANOMALY":273.3769,"EPHEMERIS_TYPE":0,"CLASSIFICATION_TYPE":"U","NORAD_CAT_ID":42987,"ELEMENT_SET_NO":999,"REV_AT_EPOCH":46680,"BSTAR":0.00052387462,"MEAN_MOTION_DOT":0.00031411,"MEAN_MOTION_DDOT":0},{"OBJECT_NAME":"SKYSAT-C10","OBJECT_ID":"2017-068B","EPOCH":"2026-03-03T07:59:54.934080","MEAN_MOTION":15.32490656,"ECCENTRICITY":0.00011597,"INCLINATION":97.4325,"RA_OF_ASC_NODE":198.4163,"ARG_OF_PERICENTER":90.6134,"MEAN_ANOMALY":269.524,"EPHEMERIS_TYPE":0,"CLASSIFICATION_TYPE":"U","NORAD_CAT_ID":42988,"ELEMENT_SET_NO":999,"REV_AT_EPOCH":46613,"BSTAR":0.00043641716,"MEAN_MOTION_DOT":0.00013622,"MEAN_MOTION_DDOT":0},{"OBJECT_NAME":"SKYSAT-C9","OBJECT_ID":"2017-068C","EPOCH":"2026-03-03T08:09:52.384896","MEAN_MOTION":15.38636065,"ECCENTRICITY":0.00096723,"INCLINATION":97.4251,"RA_OF_ASC_NODE":198.4064,"ARG_OF_PERICENTER":153.7418,"MEAN_ANOMALY":206.432,"EPHEMERIS_TYPE":0,"CLASSIFICATION_TYPE":"U","NORAD_CAT_ID":42989,"ELEMENT_SET_NO":999,"REV_AT_EPOCH":46646,"BSTAR":0.00047410189,"MEAN_MOTION_DOT":0.00018056,"MEAN_MOTION_DDOT":0},{"OBJECT_NAME":"SKYSAT-C8","OBJECT_ID":"2017-068D","EPOCH":"2026-03-03T07:49:51.608928","MEAN_MOTION":15.34560506,"ECCENTRICITY":0.00012586,"INCLINATION":97.435,"RA_OF_ASC_NODE":197.8254,"ARG_OF_PERICENTER":113.2685,"MEAN_ANOMALY":246.869,"EPHEMERIS_TYPE":0,"CLASSIFICATION_TYPE":"U","NORAD_CAT_ID":42990,"ELEMENT_SET_NO":999,"REV_AT_EPOCH":46606,"BSTAR":0.00020005058,"MEAN_MOTION_DOT":6.617e-5,"MEAN_MOTION_DDOT":0},{"OBJECT_NAME":"SKYSAT-C7","OBJECT_ID":"2017-068E","EPOCH":"2026-03-03T07:35:16.931616","MEAN_MOTION":15.34512004,"ECCENTRICITY":0.00073819,"INCLINATION":97.4355,"RA_OF_ASC_NODE":198.7983,"ARG_OF_PERICENTER":123.3852,"MEAN_ANOMALY":236.8098,"EPHEMERIS_TYPE":0,"CLASSIFICATION_TYPE":"U","NORAD_CAT_ID":42991,"ELEMENT_SET_NO":999,"REV_AT_EPOCH":46612,"BSTAR":0.00045911985,"MEAN_MOTION_DOT":0.00015294,"MEAN_MOTION_DDOT":0},{"OBJECT_NAME":"SKYSAT-C6","OBJECT_ID":"2017-068F","EPOCH":"2026-03-03T08:51:18.812736","MEAN_MOTION":15.32557813,"ECCENTRICITY":0.00035446,"INCLINATION":97.4389,"RA_OF_ASC_NODE":199.1542,"ARG_OF_PERICENTER":127.5584,"MEAN_ANOMALY":232.598,"EPHEMERIS_TYPE":0,"CLASSIFICATION_TYPE":"U","NORAD_CAT_ID":42992,"ELEMENT_SET_NO":999,"REV_AT_EPOCH":46610,"BSTAR":0.00042937642,"MEAN_MOTION_DOT":0.00013431,"MEAN_MOTION_DDOT":0},{"OBJECT_NAME":"CARTOSAT-2F","OBJECT_ID":"2018-004A","EPOCH":"2026-03-03T21:24:34.923168","MEAN_MOTION":15.19191784,"ECCENTRICITY":5.32e-5,"INCLINATION":97.4174,"RA_OF_ASC_NODE":124.1561,"ARG_OF_PERICENTER":266.5285,"MEAN_ANOMALY":93.5889,"EPHEMERIS_TYPE":0,"CLASSIFICATION_TYPE":"U","NORAD_CAT_ID":43111,"ELEMENT_SET_NO":999,"REV_AT_EPOCH":45134,"BSTAR":0.00021467,"MEAN_MOTION_DOT":4.449e-5,"MEAN_MOTION_DDOT":0},{"OBJECT_NAME":"GAOFEN-1 02","OBJECT_ID":"2018-031A","EPOCH":"2026-03-03T20:19:46.961184","MEAN_MOTION":14.76466646,"ECCENTRICITY":0.0002821,"INCLINATION":98.0663,"RA_OF_ASC_NODE":125.6074,"ARG_OF_PERICENTER":5.8896,"MEAN_ANOMALY":354.2346,"EPHEMERIS_TYPE":0,"CLASSIFICATION_TYPE":"U","NORAD_CAT_ID":43259,"ELEMENT_SET_NO":999,"REV_AT_EPOCH":42715,"BSTAR":9.3711e-5,"MEAN_MOTION_DOT":6.0e-6,"MEAN_MOTION_DDOT":0},{"OBJECT_NAME":"GAOFEN-1 03","OBJECT_ID":"2018-031B","EPOCH":"2026-03-03T21:25:53.433120","MEAN_MOTION":14.76464669,"ECCENTRICITY":0.0003974,"INCLINATION":98.0647,"RA_OF_ASC_NODE":125.5222,"ARG_OF_PERICENTER":65.6097,"MEAN_ANOMALY":294.5527,"EPHEMERIS_TYPE":0,"CLASSIFICATION_TYPE":"U","NORAD_CAT_ID":43260,"ELEMENT_SET_NO":999,"REV_AT_EPOCH":42715,"BSTAR":0.00017787,"MEAN_MOTION_DOT":1.186e-5,"MEAN_MOTION_DDOT":0},{"OBJECT_NAME":"GAOFEN-1 04","OBJECT_ID":"2018-031D","EPOCH":"2026-03-03T20:50:53.668608","MEAN_MOTION":14.76465422,"ECCENTRICITY":0.0002068,"INCLINATION":98.0664,"RA_OF_ASC_NODE":125.6765,"ARG_OF_PERICENTER":89.0985,"MEAN_ANOMALY":271.0461,"EPHEMERIS_TYPE":0,"CLASSIFICATION_TYPE":"U","NORAD_CAT_ID":43262,"ELEMENT_SET_NO":999,"REV_AT_EPOCH":42714,"BSTAR":0.00017083,"MEAN_MOTION_DOT":1.137e-5,"MEAN_MOTION_DDOT":0},{"OBJECT_NAME":"SENTINEL-3B","OBJECT_ID":"2018-039A","EPOCH":"2026-03-03T17:08:35.913984","MEAN_MOTION":14.26742264,"ECCENTRICITY":8.44e-5,"INCLINATION":98.624,"RA_OF_ASC_NODE":131.735,"ARG_OF_PERICENTER":127.4691,"MEAN_ANOMALY":232.6566,"EPHEMERIS_TYPE":0,"CLASSIFICATION_TYPE":"U","NORAD_CAT_ID":43437,"ELEMENT_SET_NO":999,"REV_AT_EPOCH":40908,"BSTAR":8.8442e-5,"MEAN_MOTION_DOT":1.7e-6,"MEAN_MOTION_DDOT":0}]
