RESOURCESAT-2A          
1 41877U 16074A   26062.84895668 -.00000039  00000+0  24513-5 0  9997
2 41877  98.7620 137.1823 0002764  48.2637 311.8776 14.21596911479333
CARTOSAT-2D             
1 41948U 17008A   26062.84313429  .00004186  00000+0  20145-3 0  9995
2 41948  97.4244 124.0439 0004494 240.4415 119.6372 15.19309145501588
SENTINEL-2B             
1 42063U 17013A   26062.82287784  .00000210  00000+0  96715-4 0  9993
2 42063  98.5673 139.1020 0001090  93.9311 266.1996 14.30817351469570
CARTOSAT-2E             
1 42767U 17036C   26062.86011889  .00003974  00000+0  19181-3 0  9995
2 42767  97.4410 124.3270 0002976 322.2923  37.8103 15.19249338482156
FORMOSAT-5              
1 42920U 17049A   26062.74144911  .00000283  00000+0  82880-4 0  9997
2 42920  98.2322 140.3777 0011981  53.4293 306.8003 14.50817560451388
SENTINEL-5P             
1 42969U 17064A   26062.82486498  .00000094  00000+0  65645-4 0  9995
2 42969  98.7875   5.7297 0001109  80.6139 279.5162 14.19547410434610
SKYSAT-C11              
1 42987U 17068A   26062.39879573  .00031411  00000+0  52387-3 0  9996
2 42987  97.4187 207.1776 0000751  86.7569 273.3769 15.51924937466809
SKYSAT-C10              
1 42988U 17068B   26062.33327470  .00013622  00000+0  43642-3 0  9993
2 42988  97.4325 198.4163 0001159  90.6134 269.5240 15.32490656466133
SKYSAT-C9               
1 42989U 17068C   26062.34018964  .00018056  00000+0  47410-3 0  9993
2 42989  97.4251 198.4064 0009672 153.7418 206.4320 15.38636065466463
SKYSAT-C8               
1 42990U 17068D   26062.32629177  .00006617  00000+0  20005-3 0  9998
2 42990  97.4350 197.8254 0001258 113.2685 246.8690 15.34560506466064
SKYSAT-C7               
1 42991U 17068E   26062.31616819  .00015294  00000+0  45912-3 0  9992
2 42991  97.4355 198.7983 0007381 123.3852 236.8098 15.34512004466128
SKYSAT-C6               
1 42992U 17068F   26062.36896774  .00013431  00000+0  42938-3 0  9994
2 42992  97.4389 199.1542 0003544 127.5584 232.5980 15.32557813466103
CARTOSAT-2F             
1 43111U 18004A   26062.89207087  .00004449  00000+0  21467-3 0  9993
2 43111  97.4174 124.1561 0000532 266.5285  93.5889 15.19191784451343
GAOFEN-1 02             
1 43259U 18031A   26062.84707131  .00000600  00000+0  93711-4 0  9993
2 43259  98.0663 125.6074 0002821   5.8896 354.2346 14.76466646427157
GAOFEN-1 03             
1 43260U 18031B   26062.89297955  .00001186  00000+0  17787-3 0  9996
2 43260  98.0647 125.5222 0003974  65.6097 294.5527 14.76464669427152
GAOFEN-1 04             
1 43262U 18031D   26062.86867672  .00001137  00000+0  17083-3 0  9999
2 43262  98.0664 125.6765 0002068  89.0985 271.0461 14.76465422427149
SENTINEL-3B             
1 43437U 18039A   26062.71430456  .00000170  00000+0  88442-4 0  9995
2 43437  98.6240 131.7350 0000844 127.4691 232.6566 14.26742264409087
